{
  "type": "FeatureCollection",
  "features": [
    {
      "type": "Feature",
      "properties": {
        "norad_id": 30938,
        "name": "FENGYUN 1C DEB",
        "group": "fengyun-1c-debris",
        "lat": -6.886005427512107,
        "lon": 169.12694503862997,
        "alt_km": 863.0687513630755,
        "timestamp": "2025-12-02T08:59:32.993826+00:00",
        "meta_object_name": "FENGYUN 1C DEB",
        "meta_object_id": "1999-025BAC",
        "meta_epoch": "2025-12-01T23:45:16.229088",
        "meta_mean_motion": 14.19791938,
        "meta_eccentricity": 0.0046481,
        "meta_inclination": 98.5913,
        "meta_ra_of_asc_node": 349.7995,
        "meta_arg_of_pericenter": 14.9159,
        "meta_mean_anomaly": 5.5742,
        "meta_ephemeris_type": 0,
        "meta_classification_type": "U",
        "meta_norad_cat_id": 30938,
        "meta_element_set_no": 999,
        "meta_rev_at_epoch": 96967,
        "meta_bstar": 0.00043368,
        "meta_mean_motion_dot": 8.86e-06,
        "meta_mean_motion_ddot": 0,
        "tle_line1": "1 30938U 99025BAC 25335.98977117  .00000886  00000+0  43368-3 0  9993",
        "tle_line2": "2 30938  98.5913 349.7995 0046481  14.9159   5.5742 14.19791938969670"
      },
      "geometry": {
        "type": "Point",
        "coordinates": [
          169.12694503862997,
          -6.886005427512107
        ]
      }
    },
    {
      "type": "Feature",
      "properties": {
        "norad_id": 30940,
        "name": "FENGYUN 1C DEB",
        "group": "fengyun-1c-debris",
        "lat": -0.8336306435488018,
        "lon": 157.04846352613038,
        "alt_km": 894.1164096407629,
        "timestamp": "2025-12-02T08:59:32.993836+00:00",
        "meta_object_name": "FENGYUN 1C DEB",
        "meta_object_id": "1999-025BAE",
        "meta_epoch": "2025-11-23T13:17:29.751648",
        "meta_mean_motion": 14.0826145,
        "meta_eccentricity": 0.004197,
        "meta_inclination": 98.622,
        "meta_ra_of_asc_node": 328.746,
        "meta_arg_of_pericenter": 57.4359,
        "meta_mean_anomaly": 68.2923,
        "meta_ephemeris_type": 0,
        "meta_classification_type": "U",
        "meta_norad_cat_id": 30940,
        "meta_element_set_no": 999,
        "meta_rev_at_epoch": 95862,
        "meta_bstar": 0.00040929136,
        "meta_mean_motion_dot": 6.64e-06,
        "meta_mean_motion_ddot": 0,
        "tle_line1": "1 30940U 99025BAE 25327.55381657  .00000664  00000+0  40929-3 0  9992",
        "tle_line2": "2 30940  98.6220 328.7460 0041970  57.4359  68.2923 14.08261450958620"
      },
      "geometry": {
        "type": "Point",
        "coordinates": [
          157.04846352613038,
          -0.8336306435488018
        ]
      }
    },
    {
      "type": "Feature",
      "properties": {
        "norad_id": 30941,
        "name": "FENGYUN 1C DEB",
        "group": "fengyun-1c-debris",
        "lat": 26.2915688041225,
        "lon": 17.63512080362348,
        "alt_km": 812.2923155809685,
        "timestamp": "2025-12-02T08:59:32.993845+00:00",
        "meta_object_name": "FENGYUN 1C DEB",
        "meta_object_id": "1999-025BAF",
        "meta_epoch": "2025-12-01T13:49:03.246528",
        "meta_mean_motion": 14.30862739,
        "meta_eccentricity": 0.00349916,
        "meta_inclination": 98.5501,
        "meta_ra_of_asc_node": 192.5869,
        "meta_arg_of_pericenter": 348.4723,
        "meta_mean_anomaly": 11.5655,
        "meta_ephemeris_type": 0,
        "meta_classification_type": "U",
        "meta_norad_cat_id": 30941,
        "meta_element_set_no": 999,
        "meta_rev_at_epoch": 96466,
        "meta_bstar": 0.0018784871,
        "meta_mean_motion_dot": 4.921e-05,
        "meta_mean_motion_ddot": 0,
        "tle_line1": "1 30941U 99025BAF 25335.57573202  .00004921  00000+0  18785-2 0  9997",
        "tle_line2": "2 30941  98.5501 192.5869 0034991 348.4723  11.5655 14.30862739964661"
      },
      "geometry": {
        "type": "Point",
        "coordinates": [
          17.63512080362348,
          26.2915688041225
        ]
      }
    },
    {
      "type": "Feature",
      "properties": {
        "norad_id": 30942,
        "name": "FENGYUN 1C DEB",
        "group": "fengyun-1c-debris",
        "lat": 39.36704116606192,
        "lon": -32.30074173571012,
        "alt_km": 848.4674139564704,
        "timestamp": "2025-12-02T08:59:32.993856+00:00",
        "meta_object_name": "FENGYUN 1C DEB",
        "meta_object_id": "1999-025BAG",
        "meta_epoch": "2025-12-01T18:21:47.461824",
        "meta_mean_motion": 14.1482216,
        "meta_eccentricity": 0.0137719,
        "meta_inclination": 98.6798,
        "meta_ra_of_asc_node": 334.3061,
        "meta_arg_of_pericenter": 137.4939,
        "meta_mean_anomaly": 41.1371,
        "meta_ephemeris_type": 0,
        "meta_classification_type": "U",
        "meta_norad_cat_id": 30942,
        "meta_element_set_no": 999,
        "meta_rev_at_epoch": 96489,
        "meta_bstar": 0.00022082,
        "meta_mean_motion_dot": 4.25e-06,
        "meta_mean_motion_ddot": 0,
        "tle_line1": "1 30942U 99025BAG 25335.76513266  .00000425  00000+0  22082-3 0  9994",
        "tle_line2": "2 30942  98.6798 334.3061 0137719 137.4939  41.1371 14.14822160964893"
      },
      "geometry": {
        "type": "Point",
        "coordinates": [
          -32.30074173571012,
          39.36704116606192
        ]
      }
    },
    {
      "type": "Feature",
      "properties": {
        "norad_id": 30943,
        "name": "FENGYUN 1C DEB",
        "group": "fengyun-1c-debris",
        "lat": 44.18073822317438,
        "lon": -18.0372359055659,
        "alt_km": 850.194517375031,
        "timestamp": "2025-12-02T08:59:32.993865+00:00",
        "meta_object_name": "FENGYUN 1C DEB",
        "meta_object_id": "1999-025BAH",
        "meta_epoch": "2025-12-01T07:08:01.567104",
        "meta_mean_motion": 14.04473523,
        "meta_eccentricity": 0.0051072,
        "meta_inclination": 98.7986,
        "meta_ra_of_asc_node": 349.5755,
        "meta_arg_of_pericenter": 97.0887,
        "meta_mean_anomaly": 263.6092,
        "meta_ephemeris_type": 0,
        "meta_classification_type": "U",
        "meta_norad_cat_id": 30943,
        "meta_element_set_no": 999,
        "meta_rev_at_epoch": 95581,
        "meta_bstar": 0.0001575,
        "meta_mean_motion_dot": 2.12e-06,
        "meta_mean_motion_ddot": 0,
        "tle_line1": "1 30943U 99025BAH 25335.29724036  .00000212  00000+0  15750-3 0  9990",
        "tle_line2": "2 30943  98.7986 349.5755 0051072  97.0887 263.6092 14.04473523955819"
      },
      "geometry": {
        "type": "Point",
        "coordinates": [
          -18.0372359055659,
          44.18073822317438
        ]
      }
    },
    {
      "type": "Feature",
      "properties": {
        "norad_id": 30944,
        "name": "FENGYUN 1C DEB",
        "group": "fengyun-1c-debris",
        "lat": -60.544078990536164,
        "lon": -164.50929793218373,
        "alt_km": 759.5473145372816,
        "timestamp": "2025-12-02T08:59:32.993876+00:00",
        "meta_object_name": "FENGYUN 1C DEB",
        "meta_object_id": "1999-025BAJ",
        "meta_epoch": "2025-11-30T22:00:05.507424",
        "meta_mean_motion": 14.52412926,
        "meta_eccentricity": 0.01490924,
        "meta_inclination": 98.8521,
        "meta_ra_of_asc_node": 29.9716,
        "meta_arg_of_pericenter": 136.216,
        "meta_mean_anomaly": 45.1058,
        "meta_ephemeris_type": 0,
        "meta_classification_type": "U",
        "meta_norad_cat_id": 30944,
        "meta_element_set_no": 999,
        "meta_rev_at_epoch": 98904,
        "meta_bstar": 0.00019021363,
        "meta_mean_motion_dot": 8.39e-06,
        "meta_mean_motion_ddot": 0,
        "tle_line1": "1 30944U 99025BAJ 25334.91673041  .00000839  00000+0  19021-3 0  9998",
        "tle_line2": "2 30944  98.8521  29.9716 0149092 136.2160  45.1058 14.52412926989042"
      },
      "geometry": {
        "type": "Point",
        "coordinates": [
          -164.50929793218373,
          -60.544078990536164
        ]
      }
    },
    {
      "type": "Feature",
      "properties": {
        "norad_id": 30945,
        "name": "FENGYUN 1C DEB",
        "group": "fengyun-1c-debris",
        "lat": 58.325202639011344,
        "lon": 179.79499160449413,
        "alt_km": 773.9285645971049,
        "timestamp": "2025-12-02T08:59:32.993886+00:00",
        "meta_object_name": "FENGYUN 1C DEB",
        "meta_object_id": "1999-025BAK",
        "meta_epoch": "2025-12-02T00:17:47.503104",
        "meta_mean_motion": 14.29563665,
        "meta_eccentricity": 0.0031048,
        "meta_inclination": 99.3898,
        "meta_ra_of_asc_node": 343.8484,
        "meta_arg_of_pericenter": 68.7641,
        "meta_mean_anomaly": 347.6072,
        "meta_ephemeris_type": 0,
        "meta_classification_type": "U",
        "meta_norad_cat_id": 30945,
        "meta_element_set_no": 999,
        "meta_rev_at_epoch": 96284,
        "meta_bstar": 0.0019396,
        "meta_mean_motion_dot": 4.94e-05,
        "meta_mean_motion_ddot": 0,
        "tle_line1": "1 30945U 99025BAK 25336.01235536  .00004940  00000+0  19396-2 0  9996",
        "tle_line2": "2 30945  99.3898 343.8484 0031048  68.7641 347.6072 14.29563665962846"
      },
      "geometry": {
        "type": "Point",
        "coordinates": [
          179.79499160449413,
          58.325202639011344
        ]
      }
    }
  ]
}